STARLINK-3538           
1 51996U 22025AS  26068.06516833 -.00002095  00000+0 -11352-3 0  9997
2 51996  53.2186  21.9251 0002003  84.1129 276.0092 15.08846662220823
LEMUR-2-SIERRINI        
1 60579U 24149DR  26068.80891719  .00014386  00000+0  92040-3 0  9991
2 60579  97.6873 151.1225 0006580 147.8458 212.3173 15.08682764 85461
